<?xml version="1.0" encoding="UTF-8"?><gpx version="1.1" creator="Maro II" xmlns="http://www.topografix.com/GPX/1/1" xmlns:xsi="http://www.w3.org/2001/XMLSchema-instance" xsi:schemaLocation="http://www.topografix.com/GPX/1/1 http://www.topografix.com/GPX/1/1/gpx.xsd"><trk><name>La baie des Milliardaires avec 👭</name><trkseg><trkpt lat="43.56928050518036" lon="7.130936145782471"><speed>0.59</speed><course>160.92413</course><time>2026-06-26T13:28:48Z</time></trkpt><trkpt lat="43.56938197375222" lon="7.130966658070275"><course>131.20966</course><time>2026-06-26T13:28:54Z</time></trkpt><trkpt lat="43.569268001376614" lon="7.130971861613049"><speed>0.00</speed><course>105.2585</course><time>2026-06-26T13:28:59Z</time></trkpt><trkpt lat="43.569248006349135" lon="7.131046476007676"><speed>2.79</speed><course>102.27345</course><time>2026-06-26T13:29:05Z</time></trkpt><trkpt lat="43.56929667353445" lon="7.1311864278764805"><speed>2.46</speed><course>29.61677</course><time>2026-06-26T13:29:16Z</time></trkpt><trkpt lat="43.56957216569982" lon="7.131350517979625"><speed>3.16</speed><course>32.41201</course><time>2026-06-26T13:29:37Z</time></trkpt><trkpt lat="43.56973363454155" lon="7.131240886833598"><speed>2.73</speed><course>355.60468</course><time>2026-06-26T13:29:52Z</time></trkpt><trkpt lat="43.56987090627132" lon="7.131339327299527"><speed>2.65</speed><course>19.597124</course><time>2026-06-26T13:30:06Z</time></trkpt><trkpt lat="43.57015338229156" lon="7.131225871022461"><speed>3.07</speed><course>337.4523</course><time>2026-06-26T13:30:27Z</time></trkpt><trkpt lat="43.570276874903" lon="7.1312394847058505"><speed>3.52</speed><course>13.689901</course><time>2026-06-26T13:30:34Z</time></trkpt><trkpt lat="43.57072766529358" lon="7.132024952100703"><speed>4.63</speed><course>53.214333</course><time>2026-06-26T13:31:08Z</time></trkpt><trkpt lat="43.571811313970855" lon="7.133548938623551"><speed>6.09</speed><course>46.172916</course><time>2026-06-26T13:32:04Z</time></trkpt><trkpt lat="43.573077780140416" lon="7.13560678315097"><speed>6.32</speed><course>48.917187</course><time>2026-06-26T13:33:11Z</time></trkpt><trkpt lat="43.57378145433221" lon="7.136643396929672"><speed>9.58</speed><course>46.97954</course><time>2026-06-26T13:33:39Z</time></trkpt><trkpt lat="43.574133933153156" lon="7.137130247954786"><speed>19.34</speed><course>45.612206</course><time>2026-06-26T13:33:45Z</time></trkpt><trkpt lat="43.574199280716826" lon="7.13722328041118"><speed>20.23</speed><course>45.612206</course><time>2026-06-26T13:33:46Z</time></trkpt><trkpt lat="43.574564088234176" lon="7.137851477732085"><speed>21.32</speed><course>55.816242</course><time>2026-06-26T13:33:52Z</time></trkpt><trkpt lat="43.574890479502244" lon="7.138690377370974"><speed>21.86</speed><course>64.04719</course><time>2026-06-26T13:33:59Z</time></trkpt><trkpt lat="43.57515291342257" lon="7.139578474291298"><speed>21.77</speed><course>64.87214</course><time>2026-06-26T13:34:06Z</time></trkpt><trkpt lat="43.57537955140612" lon="7.140621793109736"><speed>21.16</speed><course>75.77014</course><time>2026-06-26T13:34:14Z</time></trkpt><trkpt lat="43.57545828389262" lon="7.1414564119260575"><speed>22.24</speed><course>85.72329</course><time>2026-06-26T13:34:20Z</time></trkpt><trkpt lat="43.57545526731019" lon="7.142440336129053"><speed>22.26</speed><course>87.82602</course><time>2026-06-26T13:34:27Z</time></trkpt><trkpt lat="43.57533453461538" lon="7.143535295100784"><speed>21.81</speed><course>103.50959</course><time>2026-06-26T13:34:35Z</time></trkpt><trkpt lat="43.57509596215499" lon="7.144453525719343"><speed>21.10</speed><course>113.22307</course><time>2026-06-26T13:34:42Z</time></trkpt><trkpt lat="43.57475972182933" lon="7.145314910232395"><speed>22.12</speed><course>121.67245</course><time>2026-06-26T13:34:49Z</time></trkpt><trkpt lat="43.5743340970407" lon="7.146093686926495"><speed>22.16</speed><course>129.36577</course><time>2026-06-26T13:34:56Z</time></trkpt><trkpt lat="43.5733423110797" lon="7.147323007535542"><speed>22.68</speed><course>138.89128</course><time>2026-06-26T13:35:09Z</time></trkpt><trkpt lat="43.57276485865004" lon="7.147907466188027"><speed>22.57</speed><course>146.32434</course><time>2026-06-26T13:35:16Z</time></trkpt><trkpt lat="43.57151937885365" lon="7.148903786119122"><speed>21.96</speed><course>149.547</course><time>2026-06-26T13:35:30Z</time></trkpt><trkpt lat="43.56910566202836" lon="7.151008989856335"><speed>22.68</speed><course>150.32912</course><time>2026-06-26T13:35:58Z</time></trkpt><trkpt lat="43.5671054312816" lon="7.152575187972097"><speed>26.58</speed><course>150.33487</course><time>2026-06-26T13:36:19Z</time></trkpt><trkpt lat="43.56699715187568" lon="7.152657578095472"><speed>26.85</speed><course>150.33487</course><time>2026-06-26T13:36:20Z</time></trkpt><trkpt lat="43.56635187821882" lon="7.153167667078546"><speed>26.90</speed><course>150.30396</course><time>2026-06-26T13:36:26Z</time></trkpt><trkpt lat="43.56624361955054" lon="7.153250169299613"><speed>27.02</speed><course>150.30396</course><time>2026-06-26T13:36:27Z</time></trkpt><trkpt lat="43.56546749106988" lon="7.15382784363725"><speed>27.17</speed><course>151.80685</course><time>2026-06-26T13:36:34Z</time></trkpt><trkpt lat="43.56386876466258" lon="7.154828793802373"><speed>27.37</speed><course>158.7394</course><time>2026-06-26T13:36:48Z</time></trkpt><trkpt lat="43.560556660374054" lon="7.156293891864797"><speed>26.42</speed><course>163.85141</course><time>2026-06-26T13:37:16Z</time></trkpt><trkpt lat="43.5589930551359" lon="7.156746504138676"><speed>25.92</speed><course>169.33974</course><time>2026-06-26T13:37:29Z</time></trkpt><trkpt lat="43.558016510666995" lon="7.156926440832719"><speed>27.20</speed><course>174.40646</course><time>2026-06-26T13:37:37Z</time></trkpt><trkpt lat="43.55748467578907" lon="7.157115264434622"><speed>12.86</speed><course>151.4567</course><time>2026-06-26T13:37:43Z</time></trkpt><trkpt lat="43.55745154584646" lon="7.157144782217212"><speed>8.32</speed><course>148.98253</course><time>2026-06-26T13:37:44Z</time></trkpt><trkpt lat="43.55728544324602" lon="7.1573425597768585"><speed>10.64</speed><course>151.7899</course><time>2026-06-26T13:37:50Z</time></trkpt><trkpt lat="43.557236259092" lon="7.157373487034114"><speed>12.13</speed><course>158.0764</course><time>2026-06-26T13:37:51Z</time></trkpt><trkpt lat="43.557236259092" lon="7.157373487034114"><speed>12.13</speed><course>158.0764</course><time>2026-06-26T13:37:51Z</time></trkpt><trkpt lat="43.556663881735304" lon="7.157431930628337"><speed>22.52</speed><course>180.45813</course><time>2026-06-26T13:37:58Z</time></trkpt><trkpt lat="43.55597055793635" lon="7.157390780333557"><speed>22.52</speed><course>180.45813</course><time>2026-06-26T13:38:04Z</time></trkpt><trkpt lat="43.55434136714473" lon="7.157220361758128"><speed>24.69</speed><course>196.50575</course><time>2026-06-26T13:38:18Z</time></trkpt><trkpt lat="43.55341063552703" lon="7.156847171612566"><speed>26.84</speed><course>190.97536</course><time>2026-06-26T13:38:26Z</time></trkpt><trkpt lat="43.552729112543126" lon="7.15647859139703"><speed>26.84</speed><course>190.97536</course><time>2026-06-26T13:38:32Z</time></trkpt><trkpt lat="43.55186391935682" lon="7.155842202025056"><speed>26.40</speed><course>204.65392</course><time>2026-06-26T13:38:40Z</time></trkpt><trkpt lat="43.55022045965234" lon="7.154923427111808"><speed>27.96</speed><course>209.7944</course><time>2026-06-26T13:38:54Z</time></trkpt><trkpt lat="43.549501771117676" lon="7.1542588490426855"><speed>26.53</speed><course>212.30067</course><time>2026-06-26T13:39:01Z</time></trkpt><trkpt lat="43.54829042962384" lon="7.152923743662737"><speed>18.34</speed><course>214.49805</course><time>2026-06-26T13:39:14Z</time></trkpt><trkpt lat="43.54829042962384" lon="7.152923743662737"><speed>17.73</speed><course>213.21477</course><time>2026-06-26T13:39:15Z</time></trkpt><trkpt lat="43.547763641181334" lon="7.152464352906432"><speed>17.73</speed><course>213.21477</course><time>2026-06-26T13:39:21Z</time></trkpt><trkpt lat="43.54768222586229" lon="7.152377337804013"><speed>20.61</speed><course>217.92336</course><time>2026-06-26T13:39:22Z</time></trkpt><trkpt lat="43.54691847125004" lon="7.151832146391298"><speed>27.73</speed><course>207.02776</course><time>2026-06-26T13:39:29Z</time></trkpt><trkpt lat="43.54526552094332" lon="7.150841853203981"><speed>27.92</speed><course>205.78828</course><time>2026-06-26T13:39:43Z</time></trkpt><trkpt lat="43.54457039621756" lon="7.150962637570897"><speed>27.32</speed><course>204.03403</course><time>2026-06-26T13:39:49Z</time></trkpt><trkpt lat="43.54366543741703" lon="7.15133712710162"><speed>25.05</speed><course>164.75171</course><time>2026-06-26T13:39:57Z</time></trkpt><trkpt lat="43.54296467466862" lon="7.151566211397474"><speed>25.05</speed><course>165.19275</course><time>2026-06-26T13:40:03Z</time></trkpt><trkpt lat="43.541265781586745" lon="7.151964513498742"><speed>27.25</speed><course>173.59235</course><time>2026-06-26T13:40:17Z</time></trkpt><trkpt lat="43.54033907412198" lon="7.151965975299335"><speed>24.91</speed><course>185.22595</course><time>2026-06-26T13:40:25Z</time></trkpt><trkpt lat="43.53964789148267" lon="7.15174701754423"><speed>26.46</speed><course>205.93988</course><time>2026-06-26T13:40:31Z</time></trkpt><trkpt lat="43.53953442518799" lon="7.151661248900258"><speed>27.07</speed><course>208.5496</course><time>2026-06-26T13:40:32Z</time></trkpt><trkpt lat="43.53887786772829" lon="7.1509219669651465"><speed>26.59</speed><course>227.49881</course><time>2026-06-26T13:40:39Z</time></trkpt><trkpt lat="43.53845999761755" lon="7.150081428880029"><speed>27.18</speed><course>241.2428</course><time>2026-06-26T13:40:45Z</time></trkpt><trkpt lat="43.537175177026455" lon="7.146775028869528"><speed>27.53</speed><course>240.46962</course><time>2026-06-26T13:41:07Z</time></trkpt><trkpt lat="43.53665793604003" lon="7.14557268081279"><speed>27.43</speed><course>241.00128</course><time>2026-06-26T13:41:15Z</time></trkpt><trkpt lat="43.5343096250841" lon="7.139116387665524"><speed>26.43</speed><course>241.97823</course><time>2026-06-26T13:41:57Z</time></trkpt><trkpt lat="43.534047719566544" lon="7.138257577406122"><speed>23.28</speed><course>256.71848</course><time>2026-06-26T13:42:03Z</time></trkpt><trkpt lat="43.5340311329411" lon="7.138113645529818"><speed>23.36</speed><course>261.62238</course><time>2026-06-26T13:42:04Z</time></trkpt><trkpt lat="43.53411250445199" lon="7.137268717198146"><speed>22.36</speed><course>297.76852</course><time>2026-06-26T13:42:10Z</time></trkpt><trkpt lat="43.53417324495829" lon="7.1371478822407015"><speed>22.43</speed><course>302.41254</course><time>2026-06-26T13:42:11Z</time></trkpt><trkpt lat="43.53459879060924" lon="7.136582137657877"><speed>19.89</speed><course>320.86633</course><time>2026-06-26T13:42:17Z</time></trkpt><trkpt lat="43.53513894549478" lon="7.135985343816387"><speed>16.90</speed><course>324.70844</course><time>2026-06-26T13:42:25Z</time></trkpt><trkpt lat="43.535382221867195" lon="7.1357760972200195"><speed>10.24</speed><course>323.2777</course><time>2026-06-26T13:42:31Z</time></trkpt><trkpt lat="43.53574384723944" lon="7.135359079264846"><speed>15.10</speed><course>323.38916</course><time>2026-06-26T13:42:39Z</time></trkpt><trkpt lat="43.53615751050776" lon="7.134945800335199"><speed>15.56</speed><course>323.38916</course><time>2026-06-26T13:42:46Z</time></trkpt><trkpt lat="43.537472805629555" lon="7.1334801072043295"><speed>10.87</speed><course>323.00433</course><time>2026-06-26T13:43:14Z</time></trkpt><trkpt lat="43.53769570116233" lon="7.133247576615805"><speed>10.87</speed><course>322.90137</course><time>2026-06-26T13:43:20Z</time></trkpt><trkpt lat="43.53813161658377" lon="7.1327261319040485"><speed>16.47</speed><course>323.52817</course><time>2026-06-26T13:43:27Z</time></trkpt><trkpt lat="43.538998699771355" lon="7.13186841182142"><speed>17.13</speed><course>323.79834</course><time>2026-06-26T13:43:41Z</time></trkpt><trkpt lat="43.54019778504251" lon="7.130509255879942"><speed>12.81</speed><course>322.97327</course><time>2026-06-26T13:44:03Z</time></trkpt><trkpt lat="43.541389672352814" lon="7.129412798997483"><speed>11.31</speed><course>330.08035</course><time>2026-06-26T13:44:30Z</time></trkpt><trkpt lat="43.54231313813397" lon="7.128793152179935"><speed>7.15</speed><course>338.79688</course><time>2026-06-26T13:44:58Z</time></trkpt><trkpt lat="43.54251915639204" lon="7.128703520608102"><speed>7.52</speed><course>345.85867</course><time>2026-06-26T13:45:05Z</time></trkpt><trkpt lat="43.543250740340014" lon="7.128521324354554"><speed>7.20</speed><course>347.18234</course><time>2026-06-26T13:45:27Z</time></trkpt><trkpt lat="43.543893382050214" lon="7.128283737106607"><speed>5.73</speed><course>345.9231</course><time>2026-06-26T13:45:48Z</time></trkpt><trkpt lat="43.545480352013065" lon="7.128008425463058"><speed>7.19</speed><course>352.46948</course><time>2026-06-26T13:46:37Z</time></trkpt><trkpt lat="43.545325466179094" lon="7.1284111897571805"><speed>7.19</speed><course>352.46948</course><time>2026-06-26T14:04:25Z</time></trkpt><trkpt lat="43.581167729135394" lon="7.121495729835379"><speed>0.00</speed><course>40.73241</course><time>2026-06-26T14:04:39Z</time></trkpt><trkpt lat="43.54533175487555" lon="7.128413946317708"><speed>0.00</speed><course>36.31168</course><time>2026-06-26T14:04:40Z</time></trkpt><trkpt lat="43.54549008577256" lon="7.1286600459979805"><course>77.04403</course><time>2026-06-26T15:36:13Z</time></trkpt><trkpt lat="43.545436334187414" lon="7.1284223296916895"><course>75.60953</course><time>2026-06-26T15:36:14Z</time></trkpt><trkpt lat="43.54528196890314" lon="7.128444875734834"><speed>0.64</speed><course>188.58623</course><time>2026-06-26T17:32:17Z</time></trkpt><trkpt lat="43.54493125725273" lon="7.1283816327398055"><speed>3.63</speed><course>195.06532</course><time>2026-06-26T17:33:16Z</time></trkpt><trkpt lat="43.544483901136374" lon="7.1280642541651265"><speed>5.26</speed><course>203.002</course><time>2026-06-26T17:33:38Z</time></trkpt><trkpt lat="43.5443066981039" lon="7.127992547176192"><speed>5.51</speed><course>187.27554</course><time>2026-06-26T17:33:45Z</time></trkpt><trkpt lat="43.543529154591795" lon="7.127956848466137"><speed>5.93</speed><course>179.21248</course><time>2026-06-26T17:34:14Z</time></trkpt><trkpt lat="43.54333685532452" lon="7.127971619367389"><speed>5.93</speed><course>175.25699</course><time>2026-06-26T17:34:21Z</time></trkpt><trkpt lat="43.54258235361703" lon="7.128268263301657"><speed>6.18</speed><course>165.0712</course><time>2026-06-26T17:34:49Z</time></trkpt><trkpt lat="43.54188328010473" lon="7.128712064017727"><speed>6.17</speed><course>157.85718</course><time>2026-06-26T17:35:16Z</time></trkpt><trkpt lat="43.54169181643512" lon="7.128775314768163"><speed>6.20</speed><course>170.21008</course><time>2026-06-26T17:35:23Z</time></trkpt><trkpt lat="43.54061612260682" lon="7.128829686485632"><speed>6.79</speed><course>177.76193</course><time>2026-06-26T17:35:58Z</time></trkpt><trkpt lat="43.53994799539788" lon="7.129001452518361"><speed>8.93</speed><course>168.37363</course><time>2026-06-26T17:36:15Z</time></trkpt><trkpt lat="43.539712064775955" lon="7.129118441437118"><speed>8.08</speed><course>154.03564</course><time>2026-06-26T17:36:21Z</time></trkpt><trkpt lat="43.53943010650587" lon="7.129393667178084"><speed>9.88</speed><course>144.36282</course><time>2026-06-26T17:36:29Z</time></trkpt><trkpt lat="43.538964585478716" lon="7.130170698489693"><speed>10.91</speed><course>132.49652</course><time>2026-06-26T17:36:43Z</time></trkpt><trkpt lat="43.53841262710663" lon="7.130819195889828"><speed>11.61</speed><course>141.67174</course><time>2026-06-26T17:36:57Z</time></trkpt><trkpt lat="43.537084405734646" lon="7.131989208030852"><speed>14.02</speed><course>146.37381</course><time>2026-06-26T17:37:24Z</time></trkpt><trkpt lat="43.5358791585605" lon="7.133124514686658"><speed>16.56</speed><course>143.94067</course><time>2026-06-26T17:37:45Z</time></trkpt><trkpt lat="43.53549845745868" lon="7.133519426533509"><speed>16.47</speed><course>144.69429</course><time>2026-06-26T17:37:52Z</time></trkpt><trkpt lat="43.535450082944244" lon="7.13357359893635"><speed>13.87</speed><course>142.505</course><time>2026-06-26T17:37:53Z</time></trkpt><trkpt lat="43.53393913732144" lon="7.1353666994333595"><speed>9.94</speed><course>139.07414</course><time>2026-06-26T17:38:34Z</time></trkpt><trkpt lat="43.53333492125252" lon="7.136211539437334"><speed>15.74</speed><course>133.85135</course><time>2026-06-26T17:38:49Z</time></trkpt><trkpt lat="43.53293532263248" lon="7.136855626816305"><speed>26.15</speed><course>128.64902</course><time>2026-06-26T17:38:55Z</time></trkpt><trkpt lat="43.53237171339559" lon="7.138019632719679"><speed>28.37</speed><course>116.81554</course><time>2026-06-26T17:39:03Z</time></trkpt><trkpt lat="43.53203240694419" lon="7.139211355851923"><speed>28.65</speed><course>109.47025</course><time>2026-06-26T17:39:10Z</time></trkpt><trkpt lat="43.53183355875392" lon="7.140256916715278"><speed>28.07</speed><course>98.97329</course><time>2026-06-26T17:39:16Z</time></trkpt><trkpt lat="43.53196196474012" lon="7.141472712075242"><speed>28.22</speed><course>70.15796</course><time>2026-06-26T17:39:23Z</time></trkpt><trkpt lat="43.53241536953387" lon="7.142552879150594"><speed>27.98</speed><course>53.863903</course><time>2026-06-26T17:39:30Z</time></trkpt><trkpt lat="43.535061154309375" lon="7.145934578845129"><speed>27.13</speed><course>44.507183</course><time>2026-06-26T17:39:58Z</time></trkpt><trkpt lat="43.536386076033466" lon="7.147868395458162"><speed>28.44</speed><course>44.82132</course><time>2026-06-26T17:40:13Z</time></trkpt><trkpt lat="43.53706386526818" lon="7.148695290063739"><speed>28.31</speed><course>41.61068</course><time>2026-06-26T17:40:20Z</time></trkpt><trkpt lat="43.53889424122811" lon="7.151156892024138"><speed>26.80</speed><course>42.8817</course><time>2026-06-26T17:40:40Z</time></trkpt><trkpt lat="43.5410453924331" lon="7.15369497499558"><speed>28.29</speed><course>42.238358</course><time>2026-06-26T17:41:02Z</time></trkpt><trkpt lat="43.542696043137354" lon="7.155878313917113"><speed>25.97</speed><course>45.078533</course><time>2026-06-26T17:41:20Z</time></trkpt><trkpt lat="43.543880115575625" lon="7.157702338051333"><speed>25.93</speed><course>49.307453</course><time>2026-06-26T17:41:35Z</time></trkpt><trkpt lat="43.54440250166847" lon="7.1584527975072545"><speed>26.08</speed><course>49.29701</course><time>2026-06-26T17:41:41Z</time></trkpt><trkpt lat="43.54518131204518" lon="7.159509939460406"><speed>29.92</speed><course>44.562687</course><time>2026-06-26T17:41:49Z</time></trkpt><trkpt lat="43.54589579817434" lon="7.160371119027238"><speed>30.03</speed><course>40.3352</course><time>2026-06-26T17:41:56Z</time></trkpt><trkpt lat="43.54656079536498" lon="7.161020569548172"><speed>29.35</speed><course>29.527817</course><time>2026-06-26T17:42:02Z</time></trkpt><trkpt lat="43.54668284996722" lon="7.161111993520921"><speed>29.35</speed><course>29.527817</course><time>2026-06-26T17:42:03Z</time></trkpt><trkpt lat="43.547620308351625" lon="7.161475634845672"><speed>30.32</speed><course>5.7619677</course><time>2026-06-26T17:42:10Z</time></trkpt><trkpt lat="43.5484397402063" lon="7.161515606222428"><speed>30.32</speed><course>5.7619677</course><time>2026-06-26T17:42:16Z</time></trkpt><trkpt lat="43.551188469655465" lon="7.161208523319433"><speed>27.80</speed><course>351.98038</course><time>2026-06-26T17:42:37Z</time></trkpt><trkpt lat="43.55299703595934" lon="7.160742934155112"><speed>28.19</speed><course>350.6222</course><time>2026-06-26T17:42:51Z</time></trkpt><trkpt lat="43.55568954922586" lon="7.159856503079552"><speed>28.76</speed><course>342.93558</course><time>2026-06-26T17:43:12Z</time></trkpt><trkpt lat="43.55667770795254" lon="7.15934272696159"><speed>28.45</speed><course>338.45178</course><time>2026-06-26T17:43:20Z</time></trkpt><trkpt lat="43.557395710641416" lon="7.158901039335336"><speed>28.76</speed><course>334.05157</course><time>2026-06-26T17:43:26Z</time></trkpt><trkpt lat="43.55986640399853" lon="7.157192730756883"><speed>27.90</speed><course>334.453</course><time>2026-06-26T17:43:47Z</time></trkpt><trkpt lat="43.56424802280269" lon="7.154887921995943"><speed>25.47</speed><course>340.27527</course><time>2026-06-26T17:44:23Z</time></trkpt><trkpt lat="43.56494922986813" lon="7.154497884048316"><speed>27.67</speed><course>335.35056</course><time>2026-06-26T17:44:29Z</time></trkpt><trkpt lat="43.56588839964406" lon="7.153921150485308"><speed>28.07</speed><course>336.66815</course><time>2026-06-26T17:44:37Z</time></trkpt><trkpt lat="43.5665333757235" lon="7.153300180719935"><speed>28.19</speed><course>321.5372</course><time>2026-06-26T17:44:43Z</time></trkpt><trkpt lat="43.567363386406555" lon="7.152409624518405"><speed>28.32</speed><course>323.93832</course><time>2026-06-26T17:44:51Z</time></trkpt><trkpt lat="43.568739729363855" lon="7.150702958250067"><speed>28.31</speed><course>318.56088</course><time>2026-06-26T17:45:05Z</time></trkpt><trkpt lat="43.56945690599363" lon="7.149920337199427"><speed>27.85</speed><course>320.40866</course><time>2026-06-26T17:45:12Z</time></trkpt><trkpt lat="43.57156755638721" lon="7.1478537995605524"><speed>28.84</speed><course>324.2697</course><time>2026-06-26T17:45:32Z</time></trkpt><trkpt lat="43.57163719876329" lon="7.147873216571947"><speed>28.00</speed><course>326.77344</course><time>2026-06-26T17:45:32Z</time></trkpt><trkpt lat="43.57255448648139" lon="7.147193457340637"><speed>28.07</speed><course>336.8635</course><time>2026-06-26T17:45:40Z</time></trkpt><trkpt lat="43.57316661143077" lon="7.146563030232114"><speed>28.13</speed><course>333.4316</course><time>2026-06-26T17:45:46Z</time></trkpt><trkpt lat="43.573818473558276" lon="7.145669900899646"><speed>28.47</speed><course>316.8143</course><time>2026-06-26T17:45:53Z</time></trkpt><trkpt lat="43.57444389287443" lon="7.144723506488828"><speed>28.67</speed><course>307.84317</course><time>2026-06-26T17:46:00Z</time></trkpt><trkpt lat="43.57497038734496" lon="7.143657385209546"><speed>28.84</speed><course>299.5069</course><time>2026-06-26T17:46:07Z</time></trkpt><trkpt lat="43.57528218871087" lon="7.142461592071338"><speed>28.16</speed><course>284.2427</course><time>2026-06-26T17:46:14Z</time></trkpt><trkpt lat="43.57536403617473" lon="7.141225705406952"><speed>28.04</speed><course>282.47498</course><time>2026-06-26T17:46:21Z</time></trkpt><trkpt lat="43.575085088629955" lon="7.140091409251814"><speed>26.83</speed><course>242.97389</course><time>2026-06-26T17:46:28Z</time></trkpt><trkpt lat="43.57467819359349" lon="7.1389465021113505"><speed>24.62</speed><course>244.22</course><time>2026-06-26T17:46:36Z</time></trkpt><trkpt lat="43.574391646292995" lon="7.138048689921308"><speed>25.94</speed><course>243.91876</course><time>2026-06-26T17:46:42Z</time></trkpt><trkpt lat="43.574086084494276" lon="7.136807913631616"><speed>25.90</speed><course>252.28976</course><time>2026-06-26T17:46:50Z</time></trkpt><trkpt lat="43.573827389091534" lon="7.13597387514228"><speed>23.11</speed><course>242.1493</course><time>2026-06-26T17:46:56Z</time></trkpt><trkpt lat="43.57346308947199" lon="7.1349909980519355"><speed>19.66</speed><course>242.04797</course><time>2026-06-26T17:47:04Z</time></trkpt><trkpt lat="43.57322129129937" lon="7.134414555809728"><speed>16.65</speed><course>239.22044</course><time>2026-06-26T17:47:10Z</time></trkpt><trkpt lat="43.57318384520447" lon="7.134325122327694"><speed>16.39</speed><course>240.36331</course><time>2026-06-26T17:47:11Z</time></trkpt><trkpt lat="43.57298965598921" lon="7.133868882603024"><speed>10.93</speed><course>235.98189</course><time>2026-06-26T17:47:17Z</time></trkpt><trkpt lat="43.57296403127667" lon="7.133813556262737"><speed>9.72</speed><course>234.21927</course><time>2026-06-26T17:47:18Z</time></trkpt><trkpt lat="43.57281959950582" lon="7.133605387525783"><speed>7.37</speed><course>223.91545</course><time>2026-06-26T17:47:24Z</time></trkpt><trkpt lat="43.57240175069652" lon="7.133256222020262"><speed>7.92</speed><course>207.1355</course><time>2026-06-26T17:47:38Z</time></trkpt><trkpt lat="43.57135392530243" lon="7.1325576096819825"><speed>7.53</speed><course>209.49843</course><time>2026-06-26T17:48:14Z</time></trkpt><trkpt lat="43.57055083336438" lon="7.131237710441787"><speed>6.96</speed><course>228.41774</course><time>2026-06-26T17:48:54Z</time></trkpt><trkpt lat="43.57035378781659" lon="7.131095334637025"><speed>5.97</speed><course>205.82597</course><time>2026-06-26T17:49:03Z</time></trkpt><trkpt lat="43.57021866431293" lon="7.131111266452243"><speed>4.77</speed><course>157.63263</course><time>2026-06-26T17:49:09Z</time></trkpt><trkpt lat="43.56995716016206" lon="7.13125830181329"><speed>3.30</speed><course>162.72934</course><time>2026-06-26T17:49:24Z</time></trkpt><trkpt lat="43.56975368097456" lon="7.131207372647262"><speed>3.28</speed><course>191.41193</course><time>2026-06-26T17:49:38Z</time></trkpt><trkpt lat="43.56959275885934" lon="7.131316919338822"><speed>2.45</speed><course>167.89369</course><time>2026-06-26T17:49:52Z</time></trkpt><trkpt lat="43.56930275683321" lon="7.1312029394654735"><speed>2.99</speed><course>184.94476</course><time>2026-06-26T17:50:13Z</time></trkpt><trkpt lat="43.56925606994213" lon="7.131127923361748"><speed>2.09</speed><course>263.519</course><time>2026-06-26T17:50:20Z</time></trkpt><trkpt lat="43.56930980672508" lon="7.130918179587552"><speed>2.13</speed><course>289.7603</course><time>2026-06-26T17:50:40Z</time></trkpt><trkpt lat="43.56932574460278" lon="7.130943548593644"><speed>0.33</speed><course>239.5749</course><time>2026-06-26T17:50:48Z</time></trkpt></trkseg></trk></gpx>