<?xml version="1.0" encoding="UTF-8"?><gpx version="1.1" creator="Maro II" xmlns="http://www.topografix.com/GPX/1/1" xmlns:xsi="http://www.w3.org/2001/XMLSchema-instance" xmlns:maro="https://maro.ykws.android/track/1" xsi:schemaLocation="http://www.topografix.com/GPX/1/1 http://www.topografix.com/GPX/1/1/gpx.xsd"><trk><name>Route 2026-09-25 19:38</name><trkseg><trkpt lat="43.51339950706868" lon="7.050426092551476"><speed>20.00</speed><time>2026-09-25T17:38:17.938Z</time></trkpt><trkpt lat="43.51270702943212" lon="7.051951586472243"><speed>20.00</speed><time>2026-09-25T17:38:32.043Z</time></trkpt><trkpt lat="43.51090838622029" lon="7.069935051391854"><speed>20.00</speed><time>2026-09-25T17:40:54.327Z</time></trkpt><trkpt lat="43.51135804702324" lon="7.074896007231747"><speed>20.00</speed><time>2026-09-25T17:41:33.512Z</time></trkpt><trkpt lat="43.51315669023508" lon="7.074896007231747"><speed>20.00</speed><time>2026-09-25T17:41:52.950Z</time></trkpt><trkpt lat="43.51945194147651" lon="7.075516126711734"><speed>20.00</speed><time>2026-09-25T17:43:01.157Z</time></trkpt><trkpt lat="43.52900072001502" lon="7.052581548026126"><speed>20.00</speed><time>2026-09-25T17:46:28.397Z</time></trkpt></trkseg><extensions><maro:data>CiRlZDVhMTlhYi1kOGZkLTQ0YTMtOGMwYy1mZTBmOWM0ZGJiNzQSFlJvdXRlIDIwMjYtMDktMjUgMTk6Mzgg0oWWzY00KLH9s82NND1BnyRBRUGfJEFSFwk9UjYTt8FFQBGgfsnlojMcQB1BnyRBUhwJjutJYqDBRUARkX7zyzI1HEAdQZ8kQSgOeJluUh4JvQgtcmXBRUAR00naDZ1HHEAdQZ8kQSicAXjlxQlSHglxQTQudMFFQBE0pfaJsUwcQB1BnyRBKMMBePb3C1IeCUIkUR6vwUVAETSl9omxTBxAHUGfJEEo1wF45I8NUh4JHz62Zn3CRUARoTB6GVRNHEAdQZ8kQSibAnjTpBFSHgkyA6xLtsNFQBHAlPTv1zUcQB1BnyRBKOoDeNv3HWUAYy5AaOoDiAHm3JbNjTSQAbH9s82NNJgBAQ==</maro:data></extensions></trk></gpx>