<?xml version="1.0" encoding="UTF-8"?><gpx version="1.1" creator="Maro II" xmlns="http://www.topografix.com/GPX/1/1" xmlns:xsi="http://www.w3.org/2001/XMLSchema-instance" xmlns:maro="https://maro.ykws.android/track/1" xsi:schemaLocation="http://www.topografix.com/GPX/1/1 http://www.topografix.com/GPX/1/1/gpx.xsd"><trk><name>Route 2026-09-25 20:23</name><trkseg><trkpt lat="43.51230206692074" lon="7.055996756404227"><speed>3.00</speed><time>2026-09-25T18:23:58.058Z</time></trkpt><trkpt lat="43.51071026767826" lon="7.058762388211374"><speed>3.00</speed><time>2026-09-25T18:27:02.547Z</time></trkpt><trkpt lat="43.51112754512874" lon="7.066818535966109"><speed>3.00</speed><time>2026-09-25T18:34:04.575Z</time></trkpt><trkpt lat="43.511609589284184" lon="7.076125099108259"><speed>18.15</speed><time>2026-09-25T18:35:25.138Z</time></trkpt><trkpt lat="43.51295857169306" lon="7.077985389561496"><speed>20.00</speed><time>2026-09-25T18:35:45.756Z</time></trkpt><trkpt lat="43.515558225536886" lon="7.079702023132759"><speed>20.00</speed><time>2026-09-25T18:36:16.906Z</time></trkpt><trkpt lat="43.51799478569833" lon="7.0789841295927625"><speed>20.00</speed><time>2026-09-25T18:36:43.832Z</time></trkpt><trkpt lat="43.525688217391924" lon="7.06270946017591"><speed>20.00</speed><time>2026-09-25T18:39:16.077Z</time></trkpt></trkseg><extensions><maro:data>CiQ5MDQzYjQxOS1iNzRjLTRiYzMtYmIwMy00Yzg0M2MzMmQzYTgSFlJvdXRlIDIwMjYtMDktMjUgMjA6MjMg6qS9zo00KPCo9c6NND1BnyRBRQaA3EBSFwmEjDcdk8FFQBHAwLU2VzkcQB3ni8U/Uh4JbLQ89F7BRUARLGkeNSw8HEAd54vFPyi4AXipoQtSHgnTNJ2gbMFFQBHT9goUbEQcQB3ni8U/KN4EeLWCJVIeCdUlS2x8wUVAEYZM7LzzTRxAHZxuFUEorwV46PcpUh4J8s9goKjBRUARBu7mZttPHEAdQZ8kQSjDBXjymCtSHgmv7trP/cFFQBH2HjtonVEcQB1BnyRBKOIFeKCMLVIeCVMJNKdNwkVAEQkENjfhUBxAHUGfJEEo/QV4zt4uUh4JoctiwEnDRUAR4Gui6DZAHEAdQZ8kQSiWB3iDhDhlKnYMQGiWB4gBlre9zo00kAHwqPXOjTSYAQE=</maro:data></extensions></trk></gpx>