<?xml version="1.0" encoding="UTF-8"?><gpx version="1.1" creator="Maro II" xmlns="http://www.topografix.com/GPX/1/1" xmlns:xsi="http://www.w3.org/2001/XMLSchema-instance" xmlns:maro="https://maro.ykws.android/track/1" xsi:schemaLocation="http://www.topografix.com/GPX/1/1 http://www.topografix.com/GPX/1/1/gpx.xsd"><trk><name>Route 2026-09-24 23:30</name><trkseg><trkpt lat="43.570564176549695" lon="7.131336345976791"><speed>20.00</speed><time>2026-09-24T21:30:56.238Z</time></trkpt><trkpt lat="43.57093537285347" lon="7.133401742628098"><speed>20.00</speed><time>2026-09-24T21:31:12.900Z</time></trkpt><trkpt lat="43.570983464877656" lon="7.140018995047104"><speed>20.00</speed><time>2026-09-24T21:32:04.716Z</time></trkpt><trkpt lat="43.567710557258984" lon="7.143005093586119"><speed>20.00</speed><time>2026-09-24T21:32:47.117Z</time></trkpt><trkpt lat="43.55218803224946" lon="7.146259359511639"><speed>20.00</speed><time>2026-09-24T21:35:36.798Z</time></trkpt><trkpt lat="43.545227517111016" lon="7.138661589561233"><speed>20.00</speed><time>2026-09-24T21:37:12.717Z</time></trkpt><trkpt lat="43.544328195505095" lon="7.136179587261298"><speed>20.00</speed><time>2026-09-24T21:37:34.453Z</time></trkpt><trkpt lat="43.54282330725649" lon="7.130190192801653"><speed>20.00</speed><time>2026-09-24T21:38:24.110Z</time></trkpt><trkpt lat="43.54388527663466" lon="7.128460010445434"><speed>20.00</speed><time>2026-09-24T21:38:41.870Z</time></trkpt><trkpt lat="43.54591999474757" lon="7.128448150097"><speed>20.00</speed><time>2026-09-24T21:39:03.859Z</time></trkpt></trkseg><extensions><maro:data>CiQ3M2QxZDBkYy1lOTg5LTQ1YWQtYmNmMC00ZGE1NmRjZDJkNjASFlJvdXRlIDIwMjYtMDktMjQgMjM6MzAg7sbQqo00KLeo7qqNND1BnyRBRUGfJEFSFwlqRjc/CMlFQBFg/PoIfYYcQB1BnyRBUh0JgkQJaRTJRUARs0Rnd5qIHEAdQZ8kQSgQeJaCAVIdCWgadvwVyUVAETQvsiNhjxxAHUGfJEEoRHj+lgRSHQm5glK9qshFQBGIdGDtb5IcQB1BnyRBKG54n+IGUh4JhODxGK7GRUAReFh3A8WVHEAdQZ8kQSiYAnjwjxFSHgmAb+kDysVFQBHqgcFN/Y0cQB1BnyRBKPgCeJ/9FlIeCRf+2ousxUVAESKuZqlyixxAHUGfJEEojgN4h6cYUh4JKxbwO3vFRUARRF/xk1CFHEAdQZ8kQSi/A3iAqxtSHgn99WEInsVFQBHt014Fi4McQB1BnyRBKNEDeOC1HFIeCS/W1bTgxUVAEeCXb+mHgxxAHUGfJEEo5wN4xeEdZblgLUBo5wOIAaLc0KqNNJABt6juqo00mAEB</maro:data></extensions></trk></gpx>