<?xml version="1.0" encoding="UTF-8"?><gpx version="1.1" creator="Maro II" xmlns="http://www.topografix.com/GPX/1/1" xmlns:xsi="http://www.w3.org/2001/XMLSchema-instance" xmlns:maro="https://maro.ykws.android/track/1" xsi:schemaLocation="http://www.topografix.com/GPX/1/1 http://www.topografix.com/GPX/1/1/gpx.xsd"><trk><name>Route 2026-09-24 23:32</name><trkseg><trkpt lat="43.57045379023845" lon="7.131459352984734"><speed>20.00</speed><time>2026-09-24T21:32:17.080Z</time></trkpt><trkpt lat="43.57093537285347" lon="7.133401742628098"><speed>20.00</speed><time>2026-09-24T21:32:33.155Z</time></trkpt><trkpt lat="43.570983464877656" lon="7.140018995047104"><speed>20.00</speed><time>2026-09-24T21:33:24.971Z</time></trkpt><trkpt lat="43.56969823452899" lon="7.141103332513609"><speed>20.00</speed><time>2026-09-24T21:33:41.250Z</time></trkpt><trkpt lat="43.55218803224946" lon="7.146259359511639"><speed>20.00</speed><time>2026-09-24T21:36:54.747Z</time></trkpt><trkpt lat="43.54499647378941" lon="7.138185682233268"><speed>20.00</speed><time>2026-09-24T21:38:34.947Z</time></trkpt><trkpt lat="43.544085622328176" lon="7.135467844527454"><speed>20.00</speed><time>2026-09-24T21:38:58.402Z</time></trkpt><trkpt lat="43.541316392617226" lon="7.122190505746888"><speed>20.00</speed><time>2026-09-24T21:40:46.633Z</time></trkpt><trkpt lat="43.540293021790454" lon="7.082678343401653"><speed>20.00</speed><time>2026-09-24T21:45:56.370Z</time></trkpt></trkseg><extensions><maro:data>CiRhZGNhYTI3MC0xMzQ0LTRjN2MtYTFjNy0xMDU3ZjkxY2ViNmUSFlJvdXRlIDIwMjYtMDktMjQgMjM6MzIguL7Vqo00KJW/h6uNND1BnyRBRUGfJEFSFwkJejqhBMlFQBGAStdHnYYcQB1BnyRBUhwJgkQJaRTJRUARs0Rnd5qIHEAdQZ8kQSgQeMt9Uh0JaBp2/BXJRUARNC+yI2GPHEAdQZ8kQShDeLOSBFIdCQvyKt/ryEVAEaACWmR9kBxAHUGfJEEoVHjKkQVSHgmE4PEYrsZFQBF4WHcDxZUcQB1BnyRBKJUCeKP5EFIeCTCux3HCxUVAEY3eJ4yAjRxAHUGfJEEo+QJ4i4gXUh4JyQ8BmaTFRUARwJ4nFbiKHEAdQZ8kQSiRA3iqvxhSHgkzigXbScVFQBEiQgiCH30cQB1BnyRBKP0DePGMH1IeCWtsXVIoxUVAEYD9s6GpVBxAHUGfJEEoswZ42oAyZe+mkUBoswaIAaXR1aqNNJABlb+Hq400mAEB</maro:data></extensions></trk></gpx>