<?xml version="1.0" encoding="UTF-8"?><gpx version="1.1" creator="Maro II" xmlns="http://www.topografix.com/GPX/1/1" xmlns:xsi="http://www.w3.org/2001/XMLSchema-instance" xmlns:maro="https://maro.ykws.android/track/1" xsi:schemaLocation="http://www.topografix.com/GPX/1/1 http://www.topografix.com/GPX/1/1/gpx.xsd"><trk><name>Route 2026-09-25 19:40</name><trkseg><trkpt lat="43.51385424430117" lon="7.052385597528428"><speed>3.00</speed><time>2026-09-25T17:40:23.246Z</time></trkpt><trkpt lat="43.512262445058695" lon="7.055771441122099"><speed>3.00</speed><time>2026-09-25T17:43:54.081Z</time></trkpt><trkpt lat="43.511241269324216" lon="7.0670376990939925"><speed>3.00</speed><time>2026-09-25T17:53:47.345Z</time></trkpt><trkpt lat="43.51091346264982" lon="7.070654270105267"><speed>15.87</speed><time>2026-09-25T17:54:23.345Z</time></trkpt><trkpt lat="43.51136312345278" lon="7.074995095225359"><speed>20.00</speed><time>2026-09-25T17:54:57.713Z</time></trkpt><trkpt lat="43.511743723338476" lon="7.076448795306662"><speed>20.00</speed><time>2026-09-25T17:55:09.826Z</time></trkpt><trkpt lat="43.51945701790605" lon="7.075615213099657"><speed>20.00</speed><time>2026-09-25T17:56:33.441Z</time></trkpt><trkpt lat="43.52823354157227" lon="7.052424787627956"><speed>20.00</speed><time>2026-09-25T17:59:58.430Z</time></trkpt></trkseg><extensions><maro:data>CiRhNTk1NjI2YS1kNTU3LTRkMjEtYWQ2Mi0wNDAwNmUxNzBiY2YSFlJvdXRlIDIwMjYtMDktMjUgMTk6NDAgztidzY00KOG15c2NND1BnyRBRafM10BSFwmYF9P5xcFFQBEAqvCRpDUcQB3ni8U/Uh4JgD/Y0JHBRUARSq4OJhw5HEAd54vFPyjSAXiT7wxSHgl4DppacMFFQBHG1NSHpUQcQB3ni8U/KKQGeIOKMVIeCWOVwpxlwUVAERKzzZdZSBxAHSKhAkEoyAZ4o6MzUh4JGM7JWHTBRUARzWmlg8tMHEAdQZ8kQSjqBnjjrzVSHgkF1n3RgMFFQBGSpM6XSE4cQB1BnyRBKPYGeLSONlIeCcbKS5F9wkVAEVVfDRNuTRxAHUGfJEEoygd405s7Uh4JAdocKJ3DRUARgHLx1641HEAdQZ8kQSiXCXiQ3UdlMC8sQGiXCYgBjeKdzY00kAHhteXNjTSYAQE=</maro:data></extensions></trk></gpx>