<?xml version="1.0" encoding="UTF-8"?><gpx version="1.1" creator="Maro II" xmlns="http://www.topografix.com/GPX/1/1" xmlns:xsi="http://www.w3.org/2001/XMLSchema-instance" xmlns:maro="https://maro.ykws.android/track/1" xsi:schemaLocation="http://www.topografix.com/GPX/1/1 http://www.topografix.com/GPX/1/1/gpx.xsd"><trk><name>Route 2026-09-26 09:36</name><trkseg><trkpt lat="43.57197813571229" lon="7.131125428213721"><speed>20.00</speed><time>2026-09-26T07:36:46.509Z</time></trkpt><trkpt lat="43.57305073742917" lon="7.131238121510032"><speed>20.00</speed><time>2026-09-26T07:36:58.134Z</time></trkpt><trkpt lat="43.57529904144397" lon="7.13496134753519"><speed>20.00</speed><time>2026-09-26T07:37:36.084Z</time></trkpt><trkpt lat="43.57529904144397" lon="7.143028337256365"><speed>20.00</speed><time>2026-09-26T07:38:39.244Z</time></trkpt><trkpt lat="43.57350039823213" lon="7.145510487939804"><speed>20.00</speed><time>2026-09-26T07:39:06.731Z</time></trkpt><trkpt lat="43.552816001295994" lon="7.154198015331838"><speed>20.00</speed><time>2026-09-26T07:43:00.396Z</time></trkpt><trkpt lat="43.55247004987607" lon="7.154198015331838"><speed>20.00</speed><time>2026-09-26T07:43:04.134Z</time></trkpt><trkpt lat="43.54405773613922" lon="7.154198015331838"><speed>10.00</speed><time>2026-09-26T07:46:05.962Z</time></trkpt><trkpt lat="43.54337312443385" lon="7.154198015331838"><speed>14.84</speed><time>2026-09-26T07:46:15.930Z</time></trkpt><trkpt lat="43.53527922998058" lon="7.139305111231208"><speed>20.00</speed><time>2026-09-26T07:48:41.755Z</time></trkpt><trkpt lat="43.53527922998058" lon="7.138684573560347"><speed>20.00</speed><time>2026-09-26T07:48:46.616Z</time></trkpt><trkpt lat="43.53527922998058" lon="7.138218165034544"><speed>20.00</speed><time>2026-09-26T07:48:50.270Z</time></trkpt><trkpt lat="43.53527922998058" lon="7.1099638331948505"><speed>10.00</speed><time>2026-09-26T07:56:13.001Z</time></trkpt><trkpt lat="43.53527922998058" lon="7.108898765359085"><speed>15.29</speed><time>2026-09-26T07:56:23.917Z</time></trkpt><trkpt lat="43.540263976996634" lon="7.104185937768682"><speed>20.00</speed><time>2026-09-26T07:57:29.227Z</time></trkpt><trkpt lat="43.5505676972812" lon="7.104555001663067"><speed>20.00</speed><time>2026-09-26T07:59:20.619Z</time></trkpt><trkpt lat="43.55264051798538" lon="7.115010830996907"><speed>20.00</speed><time>2026-09-26T08:00:45.524Z</time></trkpt><trkpt lat="43.551709835720715" lon="7.116680307751665"><speed>20.00</speed><time>2026-09-26T08:01:02.021Z</time></trkpt></trkseg><extensions><maro:data>CiQ4ZDdmNWU5OS00OGNlLTRjZTQtYjlhYi02M2NhNDU5MDE1OGYSFlJvdXRlIDIwMjYtMDktMjYgMDk6MzYgrdGU5Y00KM287eWNND1BnyRBRbf2FkFSFwmndF2UNslFQBFgaIe+RYYcQB1BnyRBUhwJfhoAulnJRUARCn8/SWOGHEAdQZ8kQSgLeOlaUh0JBDYkZqPJRUARCY23TjOKHEAdQZ8kQSgxeKeDA1IdCQQ2JGajyUVAEV2rOwV2khxAHUGfJEEocHjf8AZSHgkyUwd2aMlFQBGytIuzAJUcQB1BnyRBKIwBeL7HCFIeCcoiu6zCxkVAEVrVoxXmnRxAHUGfJEEo9QJ4/+gWUh4JXR6uVrfGRUARWtWjFeadHEAdQZ8kQSj5AniZhhdSHglI7ROvo8VFQBFa1aMV5p0cQB1Bn6RAKK8EeN2SIlIeCf97I0CNxUVAEVrVoxXmnRxAHcte9EAouQR4zeAiUh4JUX+hB4TERUARXp3D/6WOHEAdiJ4kQSjLBXju0ytSHglRf6EHhMRFQBEImy9UA44cQB1BnyRBKNAFeOv5K1IeCVF/oQeExEVAEWAlChCJjRxAHUGfJEEo0wV4sZYsUh4JUX+hB4TERUARPELtW5pwHEAdQZ+kQCiOCXicmUdSHglRf6EHhMRFQBEPK28og28cQB3SqvtAKJkJeMDuR1IeCSc0uF4nxUVAEaat7bevahxAHUGfJEEo2gl43uxLUh4JRQeXAHnGRUARuhpjdxBrHEAdQZ8kQSjKCnj+0lJSHgmKmKvsvMZFQBEeRTdmxXUcQB1BnyRBKJ8LeKfqV1IeCaimim2exkVAEcCF5wp7dxxAHUGfJEEorwt4mOtYZfpTykBorwuIAb2lleWNNJABzbzt5Y00mAEB</maro:data></extensions></trk></gpx>