<?xml version="1.0" encoding="UTF-8"?><gpx version="1.1" creator="Maro II" xmlns="http://www.topografix.com/GPX/1/1" xmlns:xsi="http://www.w3.org/2001/XMLSchema-instance" xmlns:maro="https://maro.ykws.android/track/1" xsi:schemaLocation="http://www.topografix.com/GPX/1/1 http://www.topografix.com/GPX/1/1/gpx.xsd"><trk><name>Route 2026-09-24 16:23</name><trkseg><trkpt lat="43.548988607725136" lon="7.096111270443259"><speed>28.00</speed><time>2026-09-24T14:23:08.700Z</time></trkpt><trkpt lat="43.55953765016257" lon="7.121214914222726"><speed>28.00</speed><time>2026-09-24T14:25:51.043Z</time></trkpt><trkpt lat="43.559987310965525" lon="7.121835370074913"><speed>28.00</speed><time>2026-09-24T14:25:55.951Z</time></trkpt><trkpt lat="43.560886632571446" lon="7.136726310527389"><speed>28.00</speed><time>2026-09-24T14:27:19.538Z</time></trkpt><trkpt lat="43.56043697176848" lon="7.137346766379576"><speed>28.00</speed><time>2026-09-24T14:27:24.446Z</time></trkpt><trkpt lat="43.55880888170139" lon="7.160367734596122"><speed>28.00</speed><time>2026-09-24T14:29:33.836Z</time></trkpt></trkseg><extensions><maro:data>CiQzNzg5ZGYxYi1hZWNmLTQxMTYtOGQ2OC0wZTJhMTFjY2FmZjQSFlJvdXRlIDIwMjYtMDktMjQgMTY6MjMgnPexno00KI+4yZ6NND2OeGZBRY54ZkFSFwksBzpCRcZFQBHAUi3+amIcQB2OeGZBUh4JGioC7p7HRUARCH8xwx98HEAdjnhmQSiiAXin9AlSHgnOYgmqrcdFQBEJ30dpwnwcQB2OeGZBKKcBeNOaClIeCTfUFyLLx0VAERvfYPsBjBxAHY54ZkEo+gF41qcPUh4JgpsQZrzHRUARHD93oaSMHEAdjnhmQSj/AXiCzg9SHgmXz6cMh8dFQBEgsn1wN6QcQB2OeGZBKIEDePDAF2Wntj9AaIEDiAGs8MeejTSQAY+4yZ6NNJgBAQ==</maro:data></extensions></trk></gpx>