<?xml version="1.0" encoding="UTF-8"?><gpx version="1.1" creator="Maro II" xmlns="http://www.topografix.com/GPX/1/1" xmlns:xsi="http://www.w3.org/2001/XMLSchema-instance" xmlns:maro="https://maro.ykws.android/track/1" xsi:schemaLocation="http://www.topografix.com/GPX/1/1 http://www.topografix.com/GPX/1/1/gpx.xsd"><trk><name>Route 2026-09-24 17:07</name><trkseg><trkpt lat="43.53175974690612" lon="7.103692458679859"><speed>28.00</speed><time>2026-09-24T15:07:33.499Z</time></trkpt><trkpt lat="43.54230878934355" lon="7.123834047581185"><speed>28.00</speed><time>2026-09-24T15:09:52.552Z</time></trkpt><trkpt lat="43.54365777175243" lon="7.133141621010633"><speed>28.00</speed><time>2026-09-24T15:10:45.663Z</time></trkpt><trkpt lat="43.54455709335834" lon="7.136864650382413"><speed>28.00</speed><time>2026-09-24T15:11:07.621Z</time></trkpt><trkpt lat="43.54590607576722" lon="7.139346669963599"><speed>28.00</speed><time>2026-09-24T15:11:24.979Z</time></trkpt><trkpt lat="43.551751666205696" lon="7.145551718916565"><speed>28.00</speed><time>2026-09-24T15:12:21.913Z</time></trkpt><trkpt lat="43.58556347246011" lon="7.140410439320789"><speed>28.00</speed><time>2026-09-24T15:16:44.502Z</time></trkpt></trkseg><extensions><maro:data>CiRhMGRiODYwZC02M2JkLTQzZjAtYmFlZC0wMTRkZDYwNjdmZGMSFlJvdXRlIDIwMjYtMDktMjQgMTc6MDcg+8nUn400KNia9p+NND2OeGZBRY54ZkFSFwlAJRG0EMRFQBHAfBtbLmocQB2OeGZBUh4JLkjZX2rFRUARUfhBWs5+HEAdjnhmQSiLAXitvghSHglL8u6TlsVFQBGM6O9GVogcQB2OeGZBKMABeKTdC1IeCbNj/Qu0xUVAEdd7NT8mjBxAHY54ZkEo1gF46ogNUh4J0A0TQODFRUARXjO55LCOHEAdjnhmQSjnAXi4kA5SHgn57nDMn8ZFQBEwfoKCC5UcQB2OeGZBKKACeJ7NEVIeCWT5bb7zykVAEWCZE8HHjxxAHY54ZkEopwR429AhZZgjiUBopwRwAYgBmJ3Wn400kAHYmvafjTSYAQE=</maro:data></extensions></trk></gpx>