<?xml version="1.0" encoding="UTF-8"?><gpx version="1.1" creator="Maro II" xmlns="http://www.topografix.com/GPX/1/1" xmlns:xsi="http://www.w3.org/2001/XMLSchema-instance" xsi:schemaLocation="http://www.topografix.com/GPX/1/1 http://www.topografix.com/GPX/1/1/gpx.xsd"><trk><name>Bad - spikes</name><cmt>  - stopped @ 19:35 for 7min
  - stopped @ 19:49 for 40min
  - stopped @ 20:30 for 1min</cmt><trkseg><trkpt lat="43.58390462398529" lon="7.099724292755127"><speed>0.00</speed><course>276.62366</course><time>2026-07-12T19:28:19.451Z</time></trkpt><trkpt lat="43.584387295385035" lon="7.099263834678307"><speed>0.00</speed><course>258.6108</course><time>2026-07-12T19:29:22.540Z</time></trkpt><trkpt lat="43.584343376242934" lon="7.099868478888116"><speed>0.00</speed><course>209.45187</course><time>2026-07-12T19:29:41.622Z</time></trkpt><trkpt lat="43.58424060331575" lon="7.098812921661992"><speed>0.00</speed><course>98.9569</course><time>2026-07-12T19:29:55.638Z</time></trkpt><trkpt lat="43.584397392896534" lon="7.098784805480413"><speed>14.17</speed><course>7.5250373</course><time>2026-07-12T19:29:58.663Z</time></trkpt><trkpt lat="43.584397392896534" lon="7.098784805480413"><speed>14.17</speed><course>7.5250373</course><time>2026-07-12T19:29:58.976Z</time></trkpt><trkpt lat="43.584397392896534" lon="7.098784805480413"><speed>14.17</speed><course>7.5250373</course><time>2026-07-12T19:29:59.065Z</time></trkpt><trkpt lat="43.584397392896534" lon="7.098784805480413"><speed>14.17</speed><course>7.5250373</course><time>2026-07-12T19:29:59.246Z</time></trkpt><trkpt lat="43.58458777286442" lon="7.101611660223045"><speed>26.39</speed><course>97.41566</course><time>2026-07-12T19:30:25.643Z</time></trkpt><trkpt lat="43.584730583570554" lon="7.102872049985273"><speed>14.82</speed><course>84.16401</course><time>2026-07-12T19:30:35.779Z</time></trkpt><trkpt lat="43.58474713147378" lon="7.103187788730868"><speed>14.82</speed><course>84.16401</course><time>2026-07-12T19:30:39.778Z</time></trkpt><trkpt lat="43.58463831313217" lon="7.103561468305108"><speed>13.88</speed><course>97.876854</course><time>2026-07-12T19:30:43.796Z</time></trkpt><trkpt lat="43.58463831313217" lon="7.103561468305108"><speed>13.88</speed><course>97.876854</course><time>2026-07-12T19:30:43.797Z</time></trkpt><trkpt lat="43.5843459217371" lon="7.104179085965346"><speed>19.42</speed><course>114.44209</course><time>2026-07-12T19:30:48.065Z</time></trkpt><trkpt lat="43.5843459217371" lon="7.104179085965346"><speed>19.42</speed><course>114.44209</course><time>2026-07-12T19:30:48.066Z</time></trkpt><trkpt lat="43.58393120767068" lon="7.105466253565403"><speed>34.16</speed><course>112.73634</course><time>2026-07-12T19:30:54.110Z</time></trkpt><trkpt lat="43.58368139297492" lon="7.1063491452520315"><speed>29.56</speed><course>111.02526</course><time>2026-07-12T19:30:59.077Z</time></trkpt><trkpt lat="43.583473255977495" lon="7.106988311515792"><speed>25.99</speed><course>116.12195</course><time>2026-07-12T19:31:03.094Z</time></trkpt><trkpt lat="43.58324603426209" lon="7.107550919546369"><speed>25.31</speed><course>111.682846</course><time>2026-07-12T19:31:07.103Z</time></trkpt><trkpt lat="43.58323093735631" lon="7.108479217691571"><speed>24.79</speed><course>111.682846</course><time>2026-07-12T19:31:11.119Z</time></trkpt><trkpt lat="43.583011313207834" lon="7.109182689919359"><speed>26.34</speed><course>122.280304</course><time>2026-07-12T19:31:15.116Z</time></trkpt><trkpt lat="43.58268884133171" lon="7.10974891061499"><speed>26.34</speed><course>122.280304</course><time>2026-07-12T19:31:19.101Z</time></trkpt><trkpt lat="43.582316778413585" lon="7.110006660344281"><speed>23.92</speed><course>175.08311</course><time>2026-07-12T19:31:23.111Z</time></trkpt><trkpt lat="43.58138253436397" lon="7.1096936816407466"><speed>26.24</speed><course>193.84987</course><time>2026-07-12T19:31:31.100Z</time></trkpt><trkpt lat="43.58086927211383" lon="7.109745610830887"><speed>26.58</speed><course>154.34344</course><time>2026-07-12T19:31:35.109Z</time></trkpt><trkpt lat="43.580538956938796" lon="7.110236561321065"><speed>26.58</speed><course>154.34344</course><time>2026-07-12T19:31:39.083Z</time></trkpt><trkpt lat="43.580538956938796" lon="7.110236561321065"><speed>26.58</speed><course>154.34344</course><time>2026-07-12T19:31:39.084Z</time></trkpt><trkpt lat="43.580424353301616" lon="7.110705471110242"><speed>20.62</speed><course>105.66909</course><time>2026-07-12T19:31:43.100Z</time></trkpt><trkpt lat="43.58036783854539" lon="7.112122371761456"><speed>21.59</speed><course>62.298756</course><time>2026-07-12T19:31:53.103Z</time></trkpt><trkpt lat="43.58059344140978" lon="7.112177057317578"><speed>21.59</speed><course>62.298756</course><time>2026-07-12T19:31:53.104Z</time></trkpt><trkpt lat="43.580790553703935" lon="7.112768204483147"><speed>20.35</speed><course>68.88412</course><time>2026-07-12T19:31:58.080Z</time></trkpt><trkpt lat="43.58093854582234" lon="7.113375408502963"><speed>20.87</speed><course>78.16499</course><time>2026-07-12T19:32:02.086Z</time></trkpt><trkpt lat="43.58099805976196" lon="7.113899830676265"><speed>20.87</speed><course>78.16499</course><time>2026-07-12T19:32:06.077Z</time></trkpt><trkpt lat="43.58100718248692" lon="7.1143705651953155"><speed>15.82</speed><course>87.6376</course><time>2026-07-12T19:32:10.102Z</time></trkpt><trkpt lat="43.58095909054056" lon="7.115494381413966"><speed>28.10</speed><course>87.207054</course><time>2026-07-12T19:32:18.087Z</time></trkpt><trkpt lat="43.580863343077944" lon="7.1164198835447845"><speed>33.59</speed><course>101.250946</course><time>2026-07-12T19:32:22.104Z</time></trkpt><trkpt lat="43.5806926242639" lon="7.1170570046417465"><speed>33.59</speed><course>101.250946</course><time>2026-07-12T19:32:26.106Z</time></trkpt><trkpt lat="43.5806926242639" lon="7.1170570046417465"><speed>33.59</speed><course>101.250946</course><time>2026-07-12T19:32:26.108Z</time></trkpt><trkpt lat="43.58060477890375" lon="7.117516384139193"><speed>23.76</speed><course>110.10002</course><time>2026-07-12T19:32:30.109Z</time></trkpt><trkpt lat="43.580554849790076" lon="7.118457787890238"><speed>23.97</speed><course>95.90436</course><time>2026-07-12T19:32:38.169Z</time></trkpt><trkpt lat="43.580554849790076" lon="7.118457787890238"><speed>23.97</speed><course>95.90436</course><time>2026-07-12T19:32:38.171Z</time></trkpt><trkpt lat="43.58046062942684" lon="7.118591663498937"><speed>12.07</speed><course>104.05313</course><time>2026-07-12T19:32:44.126Z</time></trkpt><trkpt lat="43.57981653349304" lon="7.118622764351802"><speed>34.19</speed><course>172.8963</course><time>2026-07-12T19:32:49.131Z</time></trkpt><trkpt lat="43.57931774287943" lon="7.118700039197244"><speed>34.19</speed><course>172.8963</course><time>2026-07-12T19:32:53.102Z</time></trkpt><trkpt lat="43.57898959526067" lon="7.1189225320333644"><speed>23.36</speed><course>182.06972</course><time>2026-07-12T19:32:57.144Z</time></trkpt><trkpt lat="43.578922075098525" lon="7.119227998634851"><speed>9.19</speed><course>147.5988</course><time>2026-07-12T19:33:01.182Z</time></trkpt><trkpt lat="43.578844442649235" lon="7.1193278924733"><speed>9.19</speed><course>147.5988</course><time>2026-07-12T19:33:05.191Z</time></trkpt><trkpt lat="43.578784150394036" lon="7.119046369499298"><speed>9.86</speed><course>163.18033</course><time>2026-07-12T19:33:09.192Z</time></trkpt><trkpt lat="43.57862394347002" lon="7.11880531370786"><speed>5.83</speed><course>214.59344</course><time>2026-07-12T19:33:17.194Z</time></trkpt><trkpt lat="43.578504227487166" lon="7.118794515653656"><speed>7.84</speed><course>204.86992</course><time>2026-07-12T19:33:21.091Z</time></trkpt><trkpt lat="43.5784245514645" lon="7.118942864317354"><speed>4.37</speed><course>146.54237</course><time>2026-07-12T19:33:28.072Z</time></trkpt><trkpt lat="43.57824187813944" lon="7.119103592029548"><speed>4.37</speed><course>146.54237</course><time>2026-07-12T19:33:34.083Z</time></trkpt><trkpt lat="43.5781614020911" lon="7.11903527300536"><speed>12.29</speed><course>200.29938</course><time>2026-07-12T19:33:35.074Z</time></trkpt><trkpt lat="43.5781614020911" lon="7.11903527300536"><speed>12.29</speed><course>200.29938</course><time>2026-07-12T19:33:35.075Z</time></trkpt><trkpt lat="43.5775514059623" lon="7.1183786543059195"><speed>21.01</speed><course>215.2815</course><time>2026-07-12T19:33:43.095Z</time></trkpt><trkpt lat="43.5775514059623" lon="7.1183786543059195"><speed>21.01</speed><course>215.2815</course><time>2026-07-12T19:33:43.097Z</time></trkpt><trkpt lat="43.577369022618164" lon="7.118127408404954"><speed>14.16</speed><course>223.81537</course><time>2026-07-12T19:33:47.113Z</time></trkpt><trkpt lat="43.57711554462249" lon="7.118268331595532"><speed>11.20</speed><course>172.11885</course><time>2026-07-12T19:33:51.100Z</time></trkpt><trkpt lat="43.57691876859008" lon="7.118934628677541"><speed>11.20</speed><course>172.11885</course><time>2026-07-12T19:33:56.100Z</time></trkpt><trkpt lat="43.57691876859008" lon="7.118934628677541"><speed>11.20</speed><course>172.11885</course><time>2026-07-12T19:33:56.104Z</time></trkpt><trkpt lat="43.576681572910225" lon="7.119541258310128"><speed>26.40</speed><course>121.90374</course><time>2026-07-12T19:34:00.085Z</time></trkpt><trkpt lat="43.576681572910225" lon="7.119541258310128"><speed>26.40</speed><course>121.90374</course><time>2026-07-12T19:34:00.086Z</time></trkpt><trkpt lat="43.576570877725466" lon="7.119984561081525"><speed>15.84</speed><course>104.99865</course><time>2026-07-12T19:34:04.103Z</time></trkpt><trkpt lat="43.57659059547157" lon="7.120298519367693"><speed>13.60</speed><course>71.32801</course><time>2026-07-12T19:34:08.108Z</time></trkpt><trkpt lat="43.576905023306345" lon="7.1206413754788125"><speed>13.60</speed><course>71.32801</course><time>2026-07-12T19:34:12.101Z</time></trkpt><trkpt lat="43.576905023306345" lon="7.1206413754788125"><speed>13.60</speed><course>71.32801</course><time>2026-07-12T19:34:12.102Z</time></trkpt><trkpt lat="43.57721999457994" lon="7.12102210680743"><speed>21.24</speed><course>54.320175</course><time>2026-07-12T19:34:16.107Z</time></trkpt><trkpt lat="43.57717056926258" lon="7.121329884065551"><speed>19.96</speed><course>51.864975</course><time>2026-07-12T19:34:20.088Z</time></trkpt><trkpt lat="43.57717056926258" lon="7.121329884065551"><speed>19.96</speed><course>51.864975</course><time>2026-07-12T19:34:20.090Z</time></trkpt><trkpt lat="43.57703268633459" lon="7.121494775622691"><speed>13.35</speed><course>123.40537</course><time>2026-07-12T19:34:26.073Z</time></trkpt><trkpt lat="43.57704026317033" lon="7.121529817792343"><speed>17.38</speed><course>147.84692</course><time>2026-07-12T19:34:27.105Z</time></trkpt><trkpt lat="43.57677409143911" lon="7.121810803638672"><speed>23.19</speed><course>150.80272</course><time>2026-07-12T19:34:31.083Z</time></trkpt><trkpt lat="43.576380733125234" lon="7.122159741993866"><speed>23.19</speed><course>150.80272</course><time>2026-07-12T19:34:35.112Z</time></trkpt><trkpt lat="43.57613115901637" lon="7.122483556196159"><speed>22.70</speed><course>145.43547</course><time>2026-07-12T19:34:39.074Z</time></trkpt><trkpt lat="43.57613115901637" lon="7.122483556196159"><speed>22.70</speed><course>145.43547</course><time>2026-07-12T19:34:39.075Z</time></trkpt><trkpt lat="43.57621391312994" lon="7.122711281456067"><speed>14.40</speed><course>131.3003</course><time>2026-07-12T19:34:43.098Z</time></trkpt><trkpt lat="43.576468969739395" lon="7.123139107566936"><speed>21.64</speed><course>72.166985</course><time>2026-07-12T19:34:47.113Z</time></trkpt><trkpt lat="43.57654109890721" lon="7.123622458149544"><speed>21.64</speed><course>72.166985</course><time>2026-07-12T19:34:51.099Z</time></trkpt><trkpt lat="43.57654109890721" lon="7.123622458149544"><speed>21.64</speed><course>72.166985</course><time>2026-07-12T19:34:51.100Z</time></trkpt><trkpt lat="43.57646013071909" lon="7.123782847305991"><speed>8.02</speed><course>129.59398</course><time>2026-07-12T19:34:55.111Z</time></trkpt><trkpt lat="43.576170513082864" lon="7.123812545285846"><speed>8.02</speed><course>129.59398</course><time>2026-07-12T19:34:59.090Z</time></trkpt><trkpt lat="43.576170513082864" lon="7.123812545285846"><speed>8.02</speed><course>129.59398</course><time>2026-07-12T19:34:59.098Z</time></trkpt><trkpt lat="43.57600271803071" lon="7.123805464586875"><speed>12.98</speed><course>178.08916</course><time>2026-07-12T19:35:03.098Z</time></trkpt><trkpt lat="43.57586330263114" lon="7.123968995921798"><speed>11.45</speed><course>135.7303</course><time>2026-07-12T19:35:07.089Z</time></trkpt><trkpt lat="43.57586330263114" lon="7.123968995921798"><speed>11.45</speed><course>135.7303</course><time>2026-07-12T19:35:07.091Z</time></trkpt><trkpt lat="43.575708611584" lon="7.124342946158249"><speed>5.03</speed><course>126.56078</course><time>2026-07-12T19:35:15.107Z</time></trkpt><trkpt lat="43.57568705694227" lon="7.12436008506054"><speed>0.00</speed><course>126.56078</course><time>2026-07-12T19:35:21.076Z</time></trkpt><trkpt lat="43.575686395447875" lon="7.124361234787519"><speed>0.00</speed><course>211.99658</course><time>2026-07-12T19:35:22.079Z</time></trkpt><trkpt lat="43.57561450626838" lon="7.123251457830997"><speed>0.00</speed><course>89.69973</course><time>2026-07-12T19:43:31.541Z</time></trkpt><trkpt lat="43.575851520442555" lon="7.124326043699261"><speed>0.00</speed><course>89.69973</course><time>2026-07-12T19:45:38.314Z</time></trkpt><trkpt lat="43.575534620869156" lon="7.1174710726875245"><speed>0.00</speed><course>89.69973</course><time>2026-07-12T19:45:57.305Z</time></trkpt><trkpt lat="43.57584287843731" lon="7.126327506436679"><speed>0.00</speed><course>89.69973</course><time>2026-07-12T19:46:18.321Z</time></trkpt><trkpt lat="43.57577045017957" lon="7.125556050430872"><speed>0.00</speed><course>89.69973</course><time>2026-07-12T19:46:20.326Z</time></trkpt><trkpt lat="43.57584199734436" lon="7.123154261200298"><speed>0.00</speed><course>89.69973</course><time>2026-07-12T19:46:25.303Z</time></trkpt><trkpt lat="43.57590577012544" lon="7.125337348858266"><speed>0.00</speed><course>89.69973</course><time>2026-07-12T19:46:44.335Z</time></trkpt><trkpt lat="43.57586936749265" lon="7.122158004875709"><speed>0.00</speed><course>89.69973</course><time>2026-07-12T19:46:58.323Z</time></trkpt><trkpt lat="43.57613839907701" lon="7.131052616322331"><speed>0.00</speed><course>89.69973</course><time>2026-07-12T19:47:49.332Z</time></trkpt><trkpt lat="43.575759524148495" lon="7.124683070793052"><speed>0.00</speed><course>94.060646</course><time>2026-07-12T19:48:03.332Z</time></trkpt><trkpt lat="43.575759524148495" lon="7.124683070793052"><speed>44.55</speed><course>87.95943</course><time>2026-07-12T19:48:03.338Z</time></trkpt><trkpt lat="43.575760680903095" lon="7.1249489882122905"><speed>44.85</speed><course>87.95943</course><time>2026-07-12T19:48:04.299Z</time></trkpt><trkpt lat="43.57582082287813" lon="7.122193735093185"><speed>44.85</speed><course>88.62302</course><time>2026-07-12T19:48:39.324Z</time></trkpt><trkpt lat="43.57582082287813" lon="7.122193735093185"><speed>0.00</speed><course>88.62302</course><time>2026-07-12T19:48:39.325Z</time></trkpt><trkpt lat="43.57597958361566" lon="7.1224054382294835"><speed>0.00</speed><course>163.89542</course><time>2026-07-12T19:48:40.297Z</time></trkpt><trkpt lat="43.57549168953755" lon="7.124112909600551"><speed>0.00</speed><course>153.71106</course><time>2026-07-12T19:49:05.313Z</time></trkpt><trkpt lat="43.575348514345066" lon="7.124231680425325"><speed>0.00</speed><course>88.62302</course><time>2026-07-12T19:49:10.370Z</time></trkpt><trkpt lat="43.57573917257337" lon="7.1242964926500765"><speed>0.00</speed><course>39.205444</course><time>2026-07-12T20:29:41.648Z</time></trkpt><trkpt lat="43.57566909205613" lon="7.124394202966267"><speed>0.00</speed><course>111.44405</course><time>2026-07-12T20:29:45.766Z</time></trkpt><trkpt lat="43.57570015937518" lon="7.1243597892549335"><speed>2.13</speed><course>120.039055</course><time>2026-07-12T20:29:52.124Z</time></trkpt><trkpt lat="43.57658016681671" lon="7.123890161514282"><speed>0.59</speed><course>43.71875</course><time>2026-07-12T20:31:31.504Z</time></trkpt><trkpt lat="43.576293094510454" lon="7.1237958058450594"><speed>0.00</speed><course>7.544095</course><time>2026-07-12T20:31:45.494Z</time></trkpt><trkpt lat="43.57651349077626" lon="7.123889374918079"><speed>0.00</speed><course>7.422841</course><time>2026-07-12T20:31:52.100Z</time></trkpt><trkpt lat="43.57669563266623" lon="7.123823360094224"><speed>0.00</speed><course>8.472406</course><time>2026-07-12T20:31:56.131Z</time></trkpt><trkpt lat="43.57669563266623" lon="7.123823360094224"><speed>0.00</speed><course>8.472406</course><time>2026-07-12T20:31:56.132Z</time></trkpt><trkpt lat="43.5768894057453" lon="7.123540338034166"><speed>5.41</speed><course>301.92154</course><time>2026-07-12T20:32:00.143Z</time></trkpt><trkpt lat="43.5768894057453" lon="7.123540338034166"><speed>5.41</speed><course>301.92154</course><time>2026-07-12T20:32:00.144Z</time></trkpt><trkpt lat="43.57724094098402" lon="7.123006135592866"><speed>23.24</speed><course>309.34784</course><time>2026-07-12T20:32:04.168Z</time></trkpt><trkpt lat="43.57863979015032" lon="7.120702416991489"><speed>18.34</speed><course>305.97946</course><time>2026-07-12T20:32:24.201Z</time></trkpt><trkpt lat="43.578749797564534" lon="7.1205423644110475"><speed>4.86</speed><course>302.70248</course><time>2026-07-12T20:32:28.170Z</time></trkpt><trkpt lat="43.57879351908792" lon="7.1203283922553355"><speed>1.48</speed><course>276.97244</course><time>2026-07-12T20:32:35.157Z</time></trkpt><trkpt lat="43.57884747141603" lon="7.120323820602059"><speed>4.32</speed><course>321.72278</course><time>2026-07-12T20:32:41.141Z</time></trkpt><trkpt lat="43.57885494178903" lon="7.120274626422147"><speed>6.15</speed><course>325.71683</course><time>2026-07-12T20:32:42.148Z</time></trkpt><trkpt lat="43.57904894814644" lon="7.120017021336359"><speed>6.15</speed><course>325.71683</course><time>2026-07-12T20:32:46.234Z</time></trkpt><trkpt lat="43.57932196943514" lon="7.120260827683482"><speed>10.04</speed><course>321.352</course><time>2026-07-12T20:32:50.218Z</time></trkpt><trkpt lat="43.579695720619426" lon="7.120243043376924"><speed>24.11</speed><course>318.22324</course><time>2026-07-12T20:32:56.195Z</time></trkpt><trkpt lat="43.58006062102978" lon="7.119789511077948"><speed>25.67</speed><course>318.22324</course><time>2026-07-12T20:33:01.262Z</time></trkpt><trkpt lat="43.58009736347021" lon="7.119792298840956"><speed>0.00</speed><course>314.75864</course><time>2026-07-12T20:33:07.211Z</time></trkpt><trkpt lat="43.580158423822006" lon="7.119751551638182"><speed>6.48</speed><course>335.68805</course><time>2026-07-12T20:33:14.150Z</time></trkpt><trkpt lat="43.58021574519398" lon="7.119725313867675"><speed>9.54</speed><course>339.70288</course><time>2026-07-12T20:33:15.164Z</time></trkpt><trkpt lat="43.58051520255897" lon="7.119396953933811"><speed>15.70</speed><course>318.67548</course><time>2026-07-12T20:33:19.170Z</time></trkpt><trkpt lat="43.58065988837072" lon="7.119020346427601"><speed>15.70</speed><course>318.67548</course><time>2026-07-12T20:33:23.160Z</time></trkpt><trkpt lat="43.58067086667621" lon="7.118889385732031"><speed>0.75</speed><course>296.3135</course><time>2026-07-12T20:33:27.177Z</time></trkpt><trkpt lat="43.58061700829673" lon="7.118677627817133"><speed>9.14</speed><course>282.38556</course><time>2026-07-12T20:33:33.170Z</time></trkpt><trkpt lat="43.580627058043376" lon="7.118563205386243"><speed>17.66</speed><course>279.21298</course><time>2026-07-12T20:33:34.140Z</time></trkpt><trkpt lat="43.58067291994521" lon="7.117718249131765"><speed>28.49</speed><course>271.20242</course><time>2026-07-12T20:33:38.179Z</time></trkpt><trkpt lat="43.58073444061468" lon="7.117137508923532"><speed>28.49</speed><course>271.20242</course><time>2026-07-12T20:33:42.158Z</time></trkpt><trkpt lat="43.58073444061468" lon="7.117137508923532"><speed>28.49</speed><course>271.20242</course><time>2026-07-12T20:33:42.161Z</time></trkpt><trkpt lat="43.58086539536102" lon="7.116543345378492"><speed>22.53</speed><course>278.79596</course><time>2026-07-12T20:33:46.178Z</time></trkpt><trkpt lat="43.58086539536102" lon="7.116543345378492"><speed>22.53</speed><course>278.79596</course><time>2026-07-12T20:33:46.180Z</time></trkpt><trkpt lat="43.58104309346996" lon="7.115657161549451"><speed>35.38</speed><course>275.80463</course><time>2026-07-12T20:33:50.177Z</time></trkpt><trkpt lat="43.58100085040804" lon="7.114744792388548"><speed>34.84</speed><course>266.073</course><time>2026-07-12T20:33:54.170Z</time></trkpt><trkpt lat="43.581013280103626" lon="7.113858214723969"><speed>35.47</speed><course>266.073</course><time>2026-07-12T20:33:58.174Z</time></trkpt><trkpt lat="43.58092544736926" lon="7.112967707757907"><speed>35.47</speed><course>266.073</course><time>2026-07-12T20:34:02.166Z</time></trkpt><trkpt lat="43.58073104178093" lon="7.112412892266835"><speed>27.37</speed><course>229.2953</course><time>2026-07-12T20:34:06.183Z</time></trkpt><trkpt lat="43.5803714579752" lon="7.111752166251003"><speed>27.37</speed><course>229.2953</course><time>2026-07-12T20:34:10.173Z</time></trkpt><trkpt lat="43.58032529682068" lon="7.11096716079045"><speed>31.55</speed><course>276.39075</course><time>2026-07-12T20:34:14.182Z</time></trkpt><trkpt lat="43.5806134688106" lon="7.1101748445693085"><speed>31.39</speed><course>304.03845</course><time>2026-07-12T20:34:18.178Z</time></trkpt><trkpt lat="43.581096164573765" lon="7.109773358161728"><speed>31.39</speed><course>304.03845</course><time>2026-07-12T20:34:22.182Z</time></trkpt><trkpt lat="43.581096164573765" lon="7.109773358161728"><speed>31.39</speed><course>304.03845</course><time>2026-07-12T20:34:22.184Z</time></trkpt><trkpt lat="43.58162988920759" lon="7.109917698010618"><speed>18.34</speed><course>352.93817</course><time>2026-07-12T20:34:26.172Z</time></trkpt><trkpt lat="43.58162988920759" lon="7.109917698010618"><speed>18.34</speed><course>352.93817</course><time>2026-07-12T20:34:26.174Z</time></trkpt><trkpt lat="43.58230514660391" lon="7.110002436498932"><speed>27.18</speed><course>4.4907866</course><time>2026-07-12T20:34:30.161Z</time></trkpt><trkpt lat="43.582726120385225" lon="7.109708232693074"><speed>26.63</speed><course>346.23022</course><time>2026-07-12T20:34:34.163Z</time></trkpt><trkpt lat="43.582726120385225" lon="7.109708232693074"><speed>26.63</speed><course>346.23022</course><time>2026-07-12T20:34:34.166Z</time></trkpt><trkpt lat="43.58314106389527" lon="7.10902851211172"><speed>16.24</speed><course>313.66544</course><time>2026-07-12T20:34:42.180Z</time></trkpt><trkpt lat="43.58328958532018" lon="7.108727442237653"><speed>16.24</speed><course>313.66544</course><time>2026-07-12T20:34:46.160Z</time></trkpt><trkpt lat="43.583395709251604" lon="7.108382121156722"><speed>13.56</speed><course>290.9467</course><time>2026-07-12T20:34:50.181Z</time></trkpt><trkpt lat="43.58354853180678" lon="7.107560207775456"><speed>27.46</speed><course>285.23764</course><time>2026-07-12T20:34:58.171Z</time></trkpt><trkpt lat="43.58367051337542" lon="7.106904199443704"><speed>27.46</speed><course>285.23764</course><time>2026-07-12T20:35:02.166Z</time></trkpt><trkpt lat="43.58367051337542" lon="7.106904199443704"><speed>27.46</speed><course>285.23764</course><time>2026-07-12T20:35:02.171Z</time></trkpt><trkpt lat="43.58374707604879" lon="7.106649149027292"><speed>2.73</speed><course>315.43164</course><time>2026-07-12T20:35:06.167Z</time></trkpt><trkpt lat="43.58374707604879" lon="7.106649149027292"><speed>2.73</speed><course>315.43164</course><time>2026-07-12T20:35:06.415Z</time></trkpt><trkpt lat="43.58374707604879" lon="7.106649149027292"><speed>2.73</speed><course>315.43164</course><time>2026-07-12T20:35:06.477Z</time></trkpt><trkpt lat="43.58374707604879" lon="7.106649149027292"><speed>2.73</speed><course>315.43164</course><time>2026-07-12T20:35:06.510Z</time></trkpt><trkpt lat="43.58374707604879" lon="7.106649149027292"><speed>2.73</speed><course>315.43164</course><time>2026-07-12T20:35:06.541Z</time></trkpt><trkpt lat="43.58374707604879" lon="7.106649149027292"><speed>2.73</speed><course>315.43164</course><time>2026-07-12T20:35:06.592Z</time></trkpt><trkpt lat="43.58374707604879" lon="7.106649149027292"><speed>2.73</speed><course>315.43164</course><time>2026-07-12T20:35:06.622Z</time></trkpt><trkpt lat="43.58374707604879" lon="7.106649149027292"><speed>2.73</speed><course>315.43164</course><time>2026-07-12T20:35:06.649Z</time></trkpt><trkpt lat="43.58374707604879" lon="7.106649149027292"><speed>2.73</speed><course>315.43164</course><time>2026-07-12T20:35:06.677Z</time></trkpt><trkpt lat="43.58374707604879" lon="7.106649149027292"><speed>2.73</speed><course>315.43164</course><time>2026-07-12T20:35:06.740Z</time></trkpt><trkpt lat="43.58374707604879" lon="7.106649149027292"><speed>2.73</speed><course>315.43164</course><time>2026-07-12T20:35:06.784Z</time></trkpt><trkpt lat="43.58374707604879" lon="7.106649149027292"><speed>2.73</speed><course>315.43164</course><time>2026-07-12T20:35:06.824Z</time></trkpt><trkpt lat="43.58379599900055" lon="7.106523809042447"><speed>17.54</speed><course>289.1268</course><time>2026-07-12T20:35:12.158Z</time></trkpt><trkpt lat="43.58382161588503" lon="7.106415492261172"><speed>17.54</speed><course>289.1268</course><time>2026-07-12T20:35:13.161Z</time></trkpt><trkpt lat="43.58382161588503" lon="7.106415492261172"><speed>17.54</speed><course>289.1268</course><time>2026-07-12T20:35:13.164Z</time></trkpt><trkpt lat="43.583967201866784" lon="7.105723615361077"><speed>21.51</speed><course>287.1689</course><time>2026-07-12T20:35:17.146Z</time></trkpt><trkpt lat="43.584150533939024" lon="7.1048799888050365"><speed>33.88</speed><course>287.17978</course><time>2026-07-12T20:35:21.163Z</time></trkpt><trkpt lat="43.58436077804269" lon="7.104052602578905"><speed>34.00</speed><course>293.89816</course><time>2026-07-12T20:35:25.175Z</time></trkpt><trkpt lat="43.58461264463541" lon="7.103389120484659"><speed>34.00</speed><course>293.89816</course><time>2026-07-12T20:35:29.174Z</time></trkpt><trkpt lat="43.58461264463541" lon="7.103389120484659"><speed>34.00</speed><course>293.89816</course><time>2026-07-12T20:35:29.181Z</time></trkpt><trkpt lat="43.58474399962061" lon="7.1028244674353305"><speed>21.82</speed><course>299.08862</course><time>2026-07-12T20:35:33.160Z</time></trkpt><trkpt lat="43.58474399962061" lon="7.1028244674353305"><speed>21.82</speed><course>299.08862</course><time>2026-07-12T20:35:33.162Z</time></trkpt><trkpt lat="43.58469433040982" lon="7.101903968259581"><speed>27.76</speed><course>271.7108</course><time>2026-07-12T20:35:37.161Z</time></trkpt><trkpt lat="43.58469433040982" lon="7.101903968259581"><speed>27.76</speed><course>271.7108</course><time>2026-07-12T20:35:37.166Z</time></trkpt><trkpt lat="43.58462207687131" lon="7.101081689045356"><speed>36.30</speed><course>264.21136</course><time>2026-07-12T20:35:41.160Z</time></trkpt><trkpt lat="43.58462207687131" lon="7.101081689045356"><speed>36.30</speed><course>264.21136</course><time>2026-07-12T20:35:41.164Z</time></trkpt><trkpt lat="43.5846155379377" lon="7.100443089505154"><speed>24.49</speed><course>273.65024</course><time>2026-07-12T20:35:45.174Z</time></trkpt><trkpt lat="43.58473620545443" lon="7.099767080906744"><speed>33.59</speed><course>287.1589</course><time>2026-07-12T20:35:49.152Z</time></trkpt><trkpt lat="43.58488753800183" lon="7.099038292899054"><speed>33.59</speed><course>287.1589</course><time>2026-07-12T20:35:53.164Z</time></trkpt><trkpt lat="43.58488753800183" lon="7.099038292899054"><speed>33.59</speed><course>287.1589</course><time>2026-07-12T20:35:53.169Z</time></trkpt><trkpt lat="43.584818132981574" lon="7.098860667867307"><speed>21.01</speed><course>287.1589</course><time>2026-07-12T20:35:57.158Z</time></trkpt><trkpt lat="43.584818132981574" lon="7.098860667867307"><speed>21.01</speed><course>287.1589</course><time>2026-07-12T20:35:57.160Z</time></trkpt><trkpt lat="43.584724819747166" lon="7.098824668675907"><speed>8.54</speed><course>212.82382</course><time>2026-07-12T20:36:03.163Z</time></trkpt><trkpt lat="43.58470460313312" lon="7.098829505773872"><speed>6.98</speed><course>191.94652</course><time>2026-07-12T20:36:11.187Z</time></trkpt><trkpt lat="43.584430629715456" lon="7.098772421596608"><speed>14.18</speed><course>195.40549</course><time>2026-07-12T20:36:15.150Z</time></trkpt><trkpt lat="43.584240185063635" lon="7.098840713921994"><speed>14.18</speed><course>195.40549</course><time>2026-07-12T20:36:19.137Z</time></trkpt><trkpt lat="43.584240185063635" lon="7.098840713921994"><speed>11.49</speed><course>118.363106</course><time>2026-07-12T20:36:19.142Z</time></trkpt><trkpt lat="43.584240185063635" lon="7.098840713921994"><speed>11.49</speed><course>118.363106</course><time>2026-07-12T20:36:19.388Z</time></trkpt><trkpt lat="43.584240185063635" lon="7.098840713921994"><speed>11.49</speed><course>118.363106</course><time>2026-07-12T20:36:19.518Z</time></trkpt><trkpt lat="43.584240185063635" lon="7.098840713921994"><speed>11.49</speed><course>118.363106</course><time>2026-07-12T20:36:19.602Z</time></trkpt><trkpt lat="43.584240185063635" lon="7.098840713921994"><speed>11.49</speed><course>118.363106</course><time>2026-07-12T20:36:19.644Z</time></trkpt><trkpt lat="43.584240185063635" lon="7.098840713921994"><speed>11.49</speed><course>118.363106</course><time>2026-07-12T20:36:19.748Z</time></trkpt><trkpt lat="43.58406953808955" lon="7.099612374300542"><speed>17.16</speed><course>109.98969</course><time>2026-07-12T20:36:26.176Z</time></trkpt><trkpt lat="43.5839276644308" lon="7.0997445238129675"><speed>16.48</speed><course>116.62564</course><time>2026-07-12T20:36:30.148Z</time></trkpt><trkpt lat="43.5839276644308" lon="7.0997445238129675"><speed>16.48</speed><course>116.62564</course><time>2026-07-12T20:36:30.151Z</time></trkpt><trkpt lat="43.5838854888681" lon="7.099742789300311"><speed>6.52</speed><course>151.73972</course><time>2026-07-12T20:36:36.234Z</time></trkpt><trkpt lat="43.58382854080207" lon="7.099766583740929"><speed>2.07</speed><course>180.12343</course><time>2026-07-12T20:36:58.211Z</time></trkpt><trkpt lat="43.58349894625679" lon="7.099765603546477"><speed>2.04</speed><course>180.12343</course><time>2026-07-12T20:37:33.559Z</time></trkpt></trkseg></trk></gpx>